NUSAT-1 (FRESCO)        
1 41557U 16033B   22173.92658444  .00012367  00000+0  36778-3 0  9994
2 41557  97.3881 271.6316 0010365   6.3419 105.2183 15.34831524338228
BEESAT-4                
1 41619U 16040W   22173.40890798  .00014055  00000+0  46662-3 0  9993
2 41619  97.2165 223.9057 0011362 100.6187 259.6335 15.31266295321488
CAS-2T & KS-1Q          
1 41847U 16066G   22173.42034153  .00000891  00000+0  14356-3 0  9999
2 41847  98.5509 238.0871 0363567 194.8463 164.1822 14.38591474295068
NAYIF-1 (EO-88)         
1 42017U 17008BX  22173.51976188  .00015641  00000+0  46546-3 0  9994
2 42017  97.2684 239.5600 0004475 205.7159 154.3863 15.34793400297853
ZHUHAI-1 02 (CAS-4B)    
1 42759U 17034B   22173.73264609  .00004365  00000+0  26263-3 0  9993
2 42759  43.0183 303.6020 0010216 318.1504 145.0635 15.11956452277159
ZHUHAI-1 01 (CAS-4A)    
1 42761U 17034D   22173.77056097  .00004002  00000+0  24127-3 0  9995
2 42761  43.0182 302.1788 0010338 318.9676 157.7541 15.12044417277166
MAX VALIER SAT          
1 42778U 17036P   22173.36916704  .00007770  00000+0  29476-3 0  9997
2 42778  97.2048 214.3013 0009021 315.3080  44.7432 15.27086934277652
RADFXSAT (FOX-1B)       
1 43017U 17073E   22173.50533114  .00002695  00000+0  20583-3 0  9992
2 43017  97.6752  67.4929 0248756 170.9625 189.6193 14.81421224247865
FOX-1D (AO-92)          
1 43137U 18004AC  22173.46037532  .00008810  00000+0  31052-3 0  9996
2 43137  97.3683 248.5715 0006953 356.7764   3.3430 15.29492427247112
DIWATA-2B               
1 43678U 18084H   22173.81407720  .00001281  00000+0  13150-3 0  9997
2 43678  97.9716 307.1421 0008400 267.1856  92.8392 14.92184992198655
ES'HAIL 2               
1 43700U 18090A   22173.46126104  .00000142  00000+0  00000+0 0  9996
2 43700   0.0182  25.8794 0001119  85.5478 351.0204  1.00272028 13080
FOX-1CLIFF (AO-95)      
1 43770U 18099N   22173.47156448  .00002933  00000+0  26311-3 0  9994
2 43770  97.6208 239.6912 0012304 256.3686 103.6165 14.96463819193762
ITASAT 1                
1 43786U 18099AE  22173.46435864  .00002481  00000+0  22251-3 0  9999
2 43786  97.6228 240.6055 0013251 248.1324 111.8489 14.96602821193804
JY1SAT (JO-97)          
1 43803U 18099AX  22173.41364210  .00002729  00000+0  24109-3 0  9999
2 43803  97.6202 240.3128 0012877 247.6247 112.3611 14.97108904193813
UWE-4                   
1 43880U 18111E   22173.47661806  .00002832  00000+0  24342-3 0  9990
2 43880  97.6672  79.6993 0010327 307.9914  52.0375 14.98182599190458
NEXUS (FO-99)           
1 43937U 19003F   22173.66041520  .00012142  00000+0  40696-3 0  9995
2 43937  97.1298 206.8085 0022326 132.4399 227.8736 15.30809207190773
PSAT2 (NO-104)          
1 44354U 19036R   22173.26145666  .00079158 -46961-5  70228-3 0  9994
2 44354  28.5237 145.0168 0227784  24.8333 336.3040 15.40433536165428
JAISAT-1                
1 44419U 19038F   22173.44881923  .00007373  00000+0  37023-3 0  9994
2 44419  97.6355 143.6114 0021252 112.1558 248.1933 15.17394288163811
DUCHIFAT-3              
1 44854U 19089C   22173.82799000  .00003674  00000+0  28729-3 0  9992
2 44854  36.9656  68.4806 0009638 269.9366  90.0269 15.01116243138744
CAS-6 (TO-108)          
1 44881U 19093C   22173.84590163  .00000624  00000+0  85668-4 0  9996
2 44881  97.8926 252.9778 0015315 163.3580 196.8129 14.81735079135571
RS-44 & BREEZE-KM R/B   
1 44909U 19096E   22173.50708159  .00000006  00000+0 -15028-4 0  9997
2 44909  82.5212 226.9181 0216407 308.1236  50.0529 12.79713514116155
ORBITAL FACTORY 2 (OF-2)
1 45113U 19071C   22173.79958264  .00024696  00000+0  50928-3 0  9990
2 45113  51.6400  33.0589 0009999 186.7988 173.2865 15.45690159134200
HUSKYSAT-1 (HO-107)     
1 45119U 19071J   22173.03223961  .00021354  00000+0  45678-3 0  9996
2 45119  51.6396  36.9094 0009873 180.4998 179.5981 15.44705816134075
BY70-2                  
1 45857U 20042B   22173.83562938  .00007204  00000+0  96004-3 0  9990
2 45857  97.9544 250.6241 0012485 101.1235 259.1367 14.79879808106250
SALSAT                  
1 46495U 20068K   22173.48375968  .00001419  00000+0  10556-3 0  9993
2 46495  97.7294 114.7857 0014509 259.5762 100.3829 15.04536842 94943
BY70-3                  
1 46839U 20079N   22173.83521229  .00023745  00000+0  55358-3 0  9994
2 46839  97.1977 245.8586 0003777 318.3264 178.2291 15.42235982 91079
RADFXSAT-2 (AO-109)     
1 47311U 21002C   22173.45033526  .00007048  00000+0  28678-3 0  9996
2 47311  60.6865 343.4364 0016958 340.1260  19.9166 15.25377758 79223
UVSQ-SAT                
1 47438U 21006AB  22173.42942072  .00005547  00000+0  29395-3 0  9991
2 47438  97.4369 232.3375 0010292 254.3562 105.6536 15.15751674 78038
DIY-1 (ARDUIQUBE)       
1 47963U 21022AH  22173.37080931  .00014206  00000+0  79016-3 0  9990
2 47963  97.5319  74.6726 0019121 112.1111 248.2152 15.13620280 67699
XW-3 (CAS-9)            
1 50466U 21131B   22173.87578094  .00000138  00000+0  59600-4 0  9997
2 50466  98.5805 251.1272 0005785 126.4034 233.7687 14.38502694 25693
TEVEL-3                 
1 50988U 22002E   22173.79308892  .00007618  00000+0  41679-3 0  9998
2 50988  97.4814 240.6863 0010735  53.9558  86.0144 15.14489294 24225
TEVEL-8                 
1 50989U 22002F   22173.79040684  .00007579  00000+0  41528-3 0  9990
2 50989  97.4825 240.7010 0010716  53.2646  43.2655 15.14437247 24226
TEVEL-5                 
1 50998U 22002Q   22173.74392947  .00007483  00000+0  40394-3 0  9991
2 50998  97.4803 240.7295 0012142  48.4854  79.3124 15.14962169 24226
TEVEL-6                 
1 50999U 22002R   22173.80355454  .00007489  00000+0  40416-3 0  9992
2 50999  97.4801 240.7872 0012061  48.0247  46.6966 15.14967403 24236
TEVEL-1                 
1 51013U 22002AF  22173.79521579  .00007604  00000+0  41631-3 0  9990
2 51013  97.4807 240.6728 0010573  53.2229  85.8878 15.14465455 24229
TEVEL-7                 
1 51062U 22002CG  22173.84983697  .00007528  00000+0  41262-3 0  9998
2 51062  97.4819 240.7496 0010737  52.0812   0.9984 15.14427769 24239
TEVEL-4                 
1 51063U 22002CH  22173.85027586  .00007506  00000+0  41150-3 0  9998
2 51063  97.4821 240.7486 0010720  51.6267   1.1554 15.14419902 24239
TEVEL-2                 
1 51069U 22002CP  22173.79454404  .00007639  00000+0  41803-3 0  9992
2 51069  97.4804 240.6772 0010663  53.5686  88.7361 15.14481832 24222
